[{"OBJECT_NAME":"SAPPHIRE","OBJECT_ID":"2013-009C","EPOCH":"2026-03-09T22:57:28.647648","MEAN_MOTION":14.35209243,"ECCENTRICITY":0.00112275,"INCLINATION":98.4222,"RA_OF_ASC_NODE":250.7769,"ARG_OF_PERICENTER":178.7646,"MEAN_ANOMALY":181.357,"EPHEMERIS_TYPE":0,"CLASSIFICATION_TYPE":"U","NORAD_CAT_ID":39088,"ELEMENT_SET_NO":999,"REV_AT_EPOCH":68234,"BSTAR":9.3997997e-5,"MEAN_MOTION_DOT":2.26e-6,"MEAN_MOTION_DDOT":0},{"OBJECT_NAME":"IRIDIUM 33 DEB","OBJECT_ID":"1997-051P","EPOCH":"2026-03-09T21:44:24.709056","MEAN_MOTION":14.38406341,"ECCENTRICITY":0.00122048,"INCLINATION":86.4026,"RA_OF_ASC_NODE":44.1357,"ARG_OF_PERICENTER":273.3973,"MEAN_ANOMALY":144.3098,"EPHEMERIS_TYPE":0,"CLASSIFICATION_TYPE":"U","NORAD_CAT_ID":33776,"ELEMENT_SET_NO":999,"REV_AT_EPOCH":89335,"BSTAR":0.00034457749,"MEAN_MOTION_DOT":1.07e-5,"MEAN_MOTION_DDOT":0}]
